ONEWEB-0294             
1 49083U 21075J   26009.29975786 -.00000297  00000+0 -86201-3 0  9998
2 49083  87.8926  22.2072 0001418  95.9776 264.1514 13.12445467213734
ONEWEB-0295             
1 49084U 21075K   26009.32927258 -.00000026  00000+0 -99502-4 0  9993
2 49084  87.9088  37.4514 0001906 104.9532 255.1811 13.17650532212675
ONEWEB-0296             
1 49085U 21075L   26009.27942412 -.00000365  00000+0 -10509-2 0  9991
2 49085  87.8923  22.2148 0001792 102.7810 257.3519 13.12443842213732
ONEWEB-0297             
1 49086U 21075M   26009.30992850  .00000064  00000+0  14192-3 0  9994
2 49086  87.8917  22.2386 0001796  93.8016 266.3318 13.12444751214347
ONEWEB-0298             
1 49087U 21075N   26009.33364403 -.00000005  00000+0 -47044-4 0  9995
2 49087  87.9085  37.4472 0001964  92.9527 267.1829 13.17649457212702
ONEWEB-0299             
1 49088U 21075P   26009.33519440 -.00000010  00000+0 -59097-4 0  9996
2 49088  87.9095  37.4114 0001926  98.7434 261.3915 13.17649928212688
ONEWEB-0300             
1 49089U 21075Q   26009.30230523 -.00000118  00000+0 -36435-3 0  9995
2 49089  87.8928  22.2028 0001977  83.9749 276.1605 13.12445523214367
ONEWEB-0301             
1 49090U 21075R   26009.28620022 -.00000442  00000+0 -12644-2 0  9996
2 49090  87.8923  22.2071 0002000  82.2212 277.9143 13.12445084213724
ONEWEB-0302             
1 49091U 21075S   26009.27265159 -.00000138  00000+0 -41791-3 0  9990
2 49091  87.8925  22.2183 0001524 100.8577 259.2723 13.12441589213703
ONEWEB-0304             
1 49092U 21075T   26009.30987470 -.00000008  00000+0 -54215-4 0  9994
2 49092  87.9096  37.4470 0001860  97.9431 262.1912 13.17648669212658
ONEWEB-0305             
1 49093U 21075U   26009.30313864 -.00000005  00000+0 -45129-4 0  9996
2 49093  87.9100  37.4262 0002072 103.9418 256.1944 13.17649659212684
ONEWEB-0308             
1 49094U 21075V   26009.03715268  .00000078  00000+0  18238-3 0  9999
2 49094  87.8926  22.2584 0001703  89.6729 270.4594 13.12442542213682
ONEWEB-0309             
1 49095U 21075W   26009.30650842 -.00000032  00000+0 -11542-3 0  9999
2 49095  87.9099  37.4410 0001450 104.7644 255.3649 13.17649982212656
ONEWEB-0310             
1 49096U 21075X   26009.28111596 -.00000378  00000+0 -10856-2 0  9994
2 49096  87.8917  22.2447 0001704  90.7304 269.4020 13.12444681214347
ONEWEB-0311             
1 49097U 21075Y   26009.31324779  .00000002  00000+0 -29292-4 0  9997
2 49097  87.9094  37.4349 0002101  99.6549 260.4820 13.17648026212706
ONEWEB-0312             
1 49098U 21075Z   26009.32844665 -.00000034  00000+0 -11969-3 0  9997
2 49098  87.9086  37.4552 0001846 106.4601 253.6734 13.17649622212683
