[{"OBJECT_NAME":"ONEWEB-0294","OBJECT_ID":"2021-075J","EPOCH":"2026-01-09T07:11:39.079104","MEAN_MOTION":13.12445467,"ECCENTRICITY":0.00014189,"INCLINATION":87.8926,"RA_OF_ASC_NODE":22.2072,"ARG_OF_PERICENTER":95.9776,"MEAN_ANOMALY":264.1514,"EPHEMERIS_TYPE":0,"CLASSIFICATION_TYPE":"U","NORAD_CAT_ID":49083,"ELEMENT_SET_NO":999,"REV_AT_EPOCH":21373,"BSTAR":-0.00086200532,"MEAN_MOTION_DOT":-2.97e-6,"MEAN_MOTION_DDOT":0},{"OBJECT_NAME":"ONEWEB-0295","OBJECT_ID":"2021-075K","EPOCH":"2026-01-09T07:54:09.150912","MEAN_MOTION":13.17650532,"ECCENTRICITY":0.00019062,"INCLINATION":87.9088,"RA_OF_ASC_NODE":37.4514,"ARG_OF_PERICENTER":104.9532,"MEAN_ANOMALY":255.1811,"EPHEMERIS_TYPE":0,"CLASSIFICATION_TYPE":"U","NORAD_CAT_ID":49084,"ELEMENT_SET_NO":999,"REV_AT_EPOCH":21267,"BSTAR":-9.9501649e-5,"MEAN_MOTION_DOT":-2.6e-7,"MEAN_MOTION_DDOT":0},{"OBJECT_NAME":"ONEWEB-0296","OBJECT_ID":"2021-075L","EPOCH":"2026-01-09T06:42:22.243968","MEAN_MOTION":13.12443842,"ECCENTRICITY":0.00017925,"INCLINATION":87.8923,"RA_OF_ASC_NODE":22.2148,"ARG_OF_PERICENTER":102.781,"MEAN_ANOMALY":257.3519,"EPHEMERIS_TYPE":0,"CLASSIFICATION_TYPE":"U","NORAD_CAT_ID":49085,"ELEMENT_SET_NO":999,"REV_AT_EPOCH":21373,"BSTAR":-0.0010508842,"MEAN_MOTION_DOT":-3.65e-6,"MEAN_MOTION_DDOT":0},{"OBJECT_NAME":"ONEWEB-0297","OBJECT_ID":"2021-075M","EPOCH":"2026-01-09T07:26:17.822400","MEAN_MOTION":13.12444751,"ECCENTRICITY":0.00017969,"INCLINATION":87.8917,"RA_OF_ASC_NODE":22.2386,"ARG_OF_PERICENTER":93.8016,"MEAN_ANOMALY":266.3318,"EPHEMERIS_TYPE":0,"CLASSIFICATION_TYPE":"U","NORAD_CAT_ID":49086,"ELEMENT_SET_NO":999,"REV_AT_EPOCH":21434,"BSTAR":0.00014191802,"MEAN_MOTION_DOT":6.4e-7,"MEAN_MOTION_DDOT":0},{"OBJECT_NAME":"ONEWEB-0298","OBJECT_ID":"2021-075N","EPOCH":"2026-01-09T08:00:26.844192","MEAN_MOTION":13.17649457,"ECCENTRICITY":0.00019646,"INCLINATION":87.9085,"RA_OF_ASC_NODE":37.4472,"ARG_OF_PERICENTER":92.9527,"MEAN_ANOMALY":267.1829,"EPHEMERIS_TYPE":0,"CLASSIFICATION_TYPE":"U","NORAD_CAT_ID":49087,"ELEMENT_SET_NO":999,"REV_AT_EPOCH":21270,"BSTAR":-4.7044485e-5,"MEAN_MOTION_DOT":-5.0e-8,"MEAN_MOTION_DDOT":0},{"OBJECT_NAME":"ONEWEB-0299","OBJECT_ID":"2021-075P","EPOCH":"2026-01-09T08:02:40.796160","MEAN_MOTION":13.17649928,"ECCENTRICITY":0.00019267,"INCLINATION":87.9095,"RA_OF_ASC_NODE":37.4114,"ARG_OF_PERICENTER":98.7434,"MEAN_ANOMALY":261.3915,"EPHEMERIS_TYPE":0,"CLASSIFICATION_TYPE":"U","NORAD_CAT_ID":49088,"ELEMENT_SET_NO":999,"REV_AT_EPOCH":21268,"BSTAR":-5.9096838e-5,"MEAN_MOTION_DOT":-1.0e-7,"MEAN_MOTION_DDOT":0},{"OBJECT_NAME":"ONEWEB-0300","OBJECT_ID":"2021-075Q","EPOCH":"2026-01-09T07:15:19.171872","MEAN_MOTION":13.12445523,"ECCENTRICITY":0.00019775,"INCLINATION":87.8928,"RA_OF_ASC_NODE":22.2028,"ARG_OF_PERICENTER":83.9749,"MEAN_ANOMALY":276.1605,"EPHEMERIS_TYPE":0,"CLASSIFICATION_TYPE":"U","NORAD_CAT_ID":49089,"ELEMENT_SET_NO":999,"REV_AT_EPOCH":21436,"BSTAR":-0.00036434923,"MEAN_MOTION_DOT":-1.18e-6,"MEAN_MOTION_DDOT":0},{"OBJECT_NAME":"ONEWEB-0301","OBJECT_ID":"2021-075R","EPOCH":"2026-01-09T06:52:07.699008","MEAN_MOTION":13.12445084,"ECCENTRICITY":0.00020009,"INCLINATION":87.8923,"RA_OF_ASC_NODE":22.2071,"ARG_OF_PERICENTER":82.2212,"MEAN_ANOMALY":277.9143,"EPHEMERIS_TYPE":0,"CLASSIFICATION_TYPE":"U","NORAD_CAT_ID":49090,"ELEMENT_SET_NO":999,"REV_AT_EPOCH":21372,"BSTAR":-0.0012644143,"MEAN_MOTION_DOT":-4.42e-6,"MEAN_MOTION_DDOT":0},{"OBJECT_NAME":"ONEWEB-0302","OBJECT_ID":"2021-075S","EPOCH":"2026-01-09T06:32:37.097376","MEAN_MOTION":13.12441589,"ECCENTRICITY":0.00015244,"INCLINATION":87.8925,"RA_OF_ASC_NODE":22.2183,"ARG_OF_PERICENTER":100.8577,"MEAN_ANOMALY":259.2723,"EPHEMERIS_TYPE":0,"CLASSIFICATION_TYPE":"U","NORAD_CAT_ID":49091,"ELEMENT_SET_NO":999,"REV_AT_EPOCH":21370,"BSTAR":-0.00041790843,"MEAN_MOTION_DOT":-1.38e-6,"MEAN_MOTION_DDOT":0},{"OBJECT_NAME":"ONEWEB-0304","OBJECT_ID":"2021-075T","EPOCH":"2026-01-09T07:26:13.174080","MEAN_MOTION":13.17648669,"ECCENTRICITY":0.00018603,"INCLINATION":87.9096,"RA_OF_ASC_NODE":37.447,"ARG_OF_PERICENTER":97.9431,"MEAN_ANOMALY":262.1912,"EPHEMERIS_TYPE":0,"CLASSIFICATION_TYPE":"U","NORAD_CAT_ID":49092,"ELEMENT_SET_NO":999,"REV_AT_EPOCH":21265,"BSTAR":-5.4215224e-5,"MEAN_MOTION_DOT":-8.0e-8,"MEAN_MOTION_DDOT":0},{"OBJECT_NAME":"ONEWEB-0305","OBJECT_ID":"2021-075U","EPOCH":"2026-01-09T07:16:31.178496","MEAN_MOTION":13.17649659,"ECCENTRICITY":0.00020723,"INCLINATION":87.91,"RA_OF_ASC_NODE":37.4262,"ARG_OF_PERICENTER":103.9418,"MEAN_ANOMALY":256.1944,"EPHEMERIS_TYPE":0,"CLASSIFICATION_TYPE":"U","NORAD_CAT_ID":49093,"ELEMENT_SET_NO":999,"REV_AT_EPOCH":21268,"BSTAR":-4.512867e-5,"MEAN_MOTION_DOT":-5.0e-8,"MEAN_MOTION_DDOT":0},{"OBJECT_NAME":"ONEWEB-0308","OBJECT_ID":"2021-075V","EPOCH":"2026-01-09T00:53:29.991552","MEAN_MOTION":13.12442542,"ECCENTRICITY":0.00017032,"INCLINATION":87.8926,"RA_OF_ASC_NODE":22.2584,"ARG_OF_PERICENTER":89.6729,"MEAN_ANOMALY":270.4594,"EPHEMERIS_TYPE":0,"CLASSIFICATION_TYPE":"U","NORAD_CAT_ID":49094,"ELEMENT_SET_NO":999,"REV_AT_EPOCH":21368,"BSTAR":0.00018238419,"MEAN_MOTION_DOT":7.8e-7,"MEAN_MOTION_DDOT":0},{"OBJECT_NAME":"ONEWEB-0309","OBJECT_ID":"2021-075W","EPOCH":"2026-01-09T07:21:22.327488","MEAN_MOTION":13.17649982,"ECCENTRICITY":0.00014503,"INCLINATION":87.9099,"RA_OF_ASC_NODE":37.441,"ARG_OF_PERICENTER":104.7644,"MEAN_ANOMALY":255.3649,"EPHEMERIS_TYPE":0,"CLASSIFICATION_TYPE":"U","NORAD_CAT_ID":49095,"ELEMENT_SET_NO":999,"REV_AT_EPOCH":21265,"BSTAR":-0.00011542213,"MEAN_MOTION_DOT":-3.2e-7,"MEAN_MOTION_DDOT":0},{"OBJECT_NAME":"ONEWEB-0310","OBJECT_ID":"2021-075X","EPOCH":"2026-01-09T06:44:48.418944","MEAN_MOTION":13.12444681,"ECCENTRICITY":0.00017048,"INCLINATION":87.8917,"RA_OF_ASC_NODE":22.2447,"ARG_OF_PERICENTER":90.7304,"MEAN_ANOMALY":269.402,"EPHEMERIS_TYPE":0,"CLASSIFICATION_TYPE":"U","NORAD_CAT_ID":49096,"ELEMENT_SET_NO":999,"REV_AT_EPOCH":21434,"BSTAR":-0.0010855553,"MEAN_MOTION_DOT":-3.78e-6,"MEAN_MOTION_DDOT":0},{"OBJECT_NAME":"ONEWEB-0311","OBJECT_ID":"2021-075Y","EPOCH":"2026-01-09T07:31:04.609056","MEAN_MOTION":13.17648026,"ECCENTRICITY":0.00021012,"INCLINATION":87.9094,"RA_OF_ASC_NODE":37.4349,"ARG_OF_PERICENTER":99.6549,"MEAN_ANOMALY":260.482,"EPHEMERIS_TYPE":0,"CLASSIFICATION_TYPE":"U","NORAD_CAT_ID":49097,"ELEMENT_SET_NO":999,"REV_AT_EPOCH":21270,"BSTAR":-2.929233e-5,"MEAN_MOTION_DOT":2.0e-8,"MEAN_MOTION_DDOT":0},{"OBJECT_NAME":"ONEWEB-0312","OBJECT_ID":"2021-075Z","EPOCH":"2026-01-09T07:52:57.790560","MEAN_MOTION":13.17649622,"ECCENTRICITY":0.00018467,"INCLINATION":87.9086,"RA_OF_ASC_NODE":37.4552,"ARG_OF_PERICENTER":106.4601,"MEAN_ANOMALY":253.6734,"EPHEMERIS_TYPE":0,"CLASSIFICATION_TYPE":"U","NORAD_CAT_ID":49098,"ELEMENT_SET_NO":999,"REV_AT_EPOCH":21268,"BSTAR":-0.00011968699,"MEAN_MOTION_DOT":-3.4e-7,"MEAN_MOTION_DDOT":0}]
